start=new Date('2023-04-08T00:00:00.000Z').valueOf();
sats=[{"OBJECT_TYPE":"PAYLOAD","TIME_SYSTEM":"UTC","ELEMENT_SET_NO":"999","TLE_LINE1":"1 51808U 22017AS  23097.69569624  .00001272  00000-0  97990-4 0  9992","EPHEMERIS_TYPE":"0","REV_AT_EPOCH":"6298","REF_FRAME":"TEME","MEAN_MOTION":"15.08838882","PERIOD":"95.438","BSTAR":"0.00009799000000","ARG_OF_PERICENTER":"84.1779","TLE_LINE2":"2 51808  53.2177  89.0380 0001296  84.1779 275.9361 15.08838882 62980","OBJECT_ID":"2022-017AS","SEMIMAJOR_AXIS":"6917.884","LAUNCH_DATE":"2022-02-25","COUNTRY_CODE":"US","RCS_SIZE":"LARGE","DECAY_DATE":null,"ECCENTRICITY":"0.00012960","SITE":"AFWTR","MEAN_ELEMENT_THEORY":"SGP4","OBJECT_NAME":"STARLINK-3609","RA_OF_ASC_NODE":"89.0380","CLASSIFICATION_TYPE":"U","EPOCH":"2023-04-07T16:41:48.155136","NORAD_CAT_ID":"51808","APOAPSIS":"540.645","MEAN_MOTION_DDOT":"0.0000000000000","MEAN_MOTION_DOT":"0.00001272","FILE":"3882647","GP_ID":"229688137","CENTER_NAME":"EARTH","INCLINATION":"53.2177","PERIAPSIS":"538.852","MEAN_ANOMALY":"275.9361"},{"BSTAR":"-0.00006173600000","ARG_OF_PERICENTER":"92.5044","TLE_LINE2":"2 51809  53.2157  90.4743 0001447  92.5044 267.6114 15.08841554 62933","OBJECT_TYPE":"PAYLOAD","TIME_SYSTEM":"UTC","TLE_LINE1":"1 51809U 22017AT  23097.37553487 -.00001270  00000-0 -61736-4 0  9997","EPHEMERIS_TYPE":"0","ELEMENT_SET_NO":"999","REV_AT_EPOCH":"6293","MEAN_MOTION":"15.08841554","REF_FRAME":"TEME","PERIOD":"95.437","EPOCH":"2023-04-07T09:00:46.212768","NORAD_CAT_ID":"51809","APOAPSIS":"540.742","MEAN_MOTION_DDOT":"0.0000000000000","MEAN_MOTION_DOT":"-0.00001270","FILE":"3882626","CENTER_NAME":"EARTH","GP_ID":"229684006","PERIAPSIS":"538.740","INCLINATION":"53.2157","MEAN_ANOMALY":"267.6114","OBJECT_ID":"2022-017AT","SEMIMAJOR_AXIS":"6917.876","LAUNCH_DATE":"2022-02-25","COUNTRY_CODE":"US","RCS_SIZE":"LARGE","ECCENTRICITY":"0.00014470","DECAY_DATE":null,"SITE":"AFWTR","MEAN_ELEMENT_THEORY":"SGP4","OBJECT_NAME":"STARLINK-3607","RA_OF_ASC_NODE":"90.4743","CLASSIFICATION_TYPE":"U"},{"SITE":"AFWTR","DECAY_DATE":null,"ECCENTRICITY":"0.00009900","RCS_SIZE":"LARGE","LAUNCH_DATE":"2022-02-25","COUNTRY_CODE":"US","OBJECT_ID":"2022-017AU","SEMIMAJOR_AXIS":"6917.933","RA_OF_ASC_NODE":"80.4190","CLASSIFICATION_TYPE":"U","OBJECT_NAME":"STARLINK-3613","MEAN_ELEMENT_THEORY":"SGP4","MEAN_MOTION_DOT":"-0.00002490","FILE":"3882626","APOAPSIS":"540.483","MEAN_MOTION_DDOT":"0.0000000000000","NORAD_CAT_ID":"51810","EPOCH":"2023-04-07T09:19:22.927584","INCLINATION":"53.2154","PERIAPSIS":"539.114","MEAN_ANOMALY":"266.2768","CENTER_NAME":"EARTH","GP_ID":"229685257","TIME_SYSTEM":"UTC","OBJECT_TYPE":"PAYLOAD","REF_FRAME":"TEME","MEAN_MOTION":"15.08822631","PERIOD":"95.439","TLE_LINE1":"1 51810U 22017AU  23097.38845981 -.00002490  00000-0 -13851-3 0  9992","EPHEMERIS_TYPE":"0","ELEMENT_SET_NO":"999","REV_AT_EPOCH":"6295","ARG_OF_PERICENTER":"93.8337","TLE_LINE2":"2 51810  53.2154  80.4190 0000990  93.8337 266.2768 15.08822631 62955","BSTAR":"-0.00013851000000"},{"REF_FRAME":"TEME","MEAN_MOTION":"15.08846976","PERIOD":"95.437","EPHEMERIS_TYPE":"0","TLE_LINE1":"1 51811U 22017AV  23097.69937351  .00007011  00000-0  45806-3 0  9997","ELEMENT_SET_NO":"999","REV_AT_EPOCH":"6298","TIME_SYSTEM":"UTC","OBJECT_TYPE":"PAYLOAD","ARG_OF_PERICENTER":"86.1054","TLE_LINE2":"2 51811  53.2139  89.0218 0001479  86.1054 274.0107 15.08846976 62984","BSTAR":"0.00045806000000","RA_OF_ASC_NODE":"89.0218","CLASSIFICATION_TYPE":"U","OBJECT_NAME":"STARLINK-3569","MEAN_ELEMENT_THEORY":"SGP4","DECAY_DATE":null,"ECCENTRICITY":"0.00014790","SITE":"AFWTR","RCS_SIZE":"LARGE","LAUNCH_DATE":"2022-02-25","COUNTRY_CODE":"US","OBJECT_ID":"2022-017AV","SEMIMAJOR_AXIS":"6917.859","PERIAPSIS":"538.701","INCLINATION":"53.2139","MEAN_ANOMALY":"274.0107","CENTER_NAME":"EARTH","GP_ID":"229688552","MEAN_MOTION_DOT":"0.00007011","FILE":"3882647","APOAPSIS":"540.747","MEAN_MOTION_DDOT":"0.0000000000000","NORAD_CAT_ID":"51811","EPOCH":"2023-04-07T16:47:05.871264"},{"DECAY_DATE":null,"ECCENTRICITY":"0.00012570","SITE":"AFWTR","RCS_SIZE":"LARGE","COUNTRY_CODE":"US","LAUNCH_DATE":"2022-02-25","SEMIMAJOR_AXIS":"6917.889","OBJECT_ID":"2022-017AW","CLASSIFICATION_TYPE":"U","RA_OF_ASC_NODE":"79.2833","OBJECT_NAME":"STARLINK-3610","MEAN_ELEMENT_THEORY":"SGP4","FILE":"3882647","MEAN_MOTION_DOT":"0.00000383","MEAN_MOTION_DDOT":"0.0000000000000","APOAPSIS":"540.624","NORAD_CAT_ID":"51812","EPOCH":"2023-04-07T15:23:38.206752","MEAN_ANOMALY":"266.4705","PERIAPSIS":"538.885","INCLINATION":"53.2165","GP_ID":"229688138","CENTER_NAME":"EARTH","TIME_SYSTEM":"UTC","OBJECT_TYPE":"PAYLOAD","PERIOD":"95.438","REF_FRAME":"TEME","MEAN_MOTION":"15.08837105","REV_AT_EPOCH":"6311","TLE_LINE1":"1 51812U 22017AW  23097.64141443  .00000383  00000-0  42124-4 0  9998","ELEMENT_SET_NO":"999","EPHEMERIS_TYPE":"0","TLE_LINE2":"2 51812  53.2165  79.2833 0001257  93.6431 266.4705 15.08837105 63113","ARG_OF_PERICENTER":"93.6431","BSTAR":"0.00004212400000"},{"OBJECT_TYPE":"PAYLOAD","TIME_SYSTEM":"UTC","REV_AT_EPOCH":"6296","TLE_LINE1":"1 51813U 22017AX  23097.42429517  .00001115  00000-0  88121-4 0  9997","EPHEMERIS_TYPE":"0","ELEMENT_SET_NO":"999","PERIOD":"95.438","REF_FRAME":"TEME","MEAN_MOTION":"15.08839742","TLE_LINE2":"2 51813  53.2167  80.2851 0001134  85.9075 274.2047 15.08839742 62967","ARG_OF_PERICENTER":"85.9075","BSTAR":"0.00008812100000","COUNTRY_CODE":"US","LAUNCH_DATE":"2022-02-25","SEMIMAJOR_AXIS":"6917.881","OBJECT_ID":"2022-017AX","ECCENTRICITY":"0.00011340","DECAY_DATE":null,"SITE":"AFWTR","RCS_SIZE":"LARGE","OBJECT_NAME":"STARLINK-3552","MEAN_ELEMENT_THEORY":"SGP4","CLASSIFICATION_TYPE":"U","RA_OF_ASC_NODE":"80.2851","NORAD_CAT_ID":"51813","EPOCH":"2023-04-07T10:10:59.102688","FILE":"3882626","MEAN_MOTION_DOT":"0.00001115","MEAN_MOTION_DDOT":"0.0000000000000","APOAPSIS":"540.531","GP_ID":"229684507","CENTER_NAME":"EARTH","MEAN_ANOMALY":"274.2047","PERIAPSIS":"538.962","INCLINATION":"53.2167"},{"MEAN_ANOMALY":"263.5028","PERIAPSIS":"538.919","INCLINATION":"53.2166","CENTER_NAME":"EARTH","GP_ID":"229684757","MEAN_MOTION_DOT":"0.00000365","FILE":"3882626","APOAPSIS":"540.553","MEAN_MOTION_DDOT":"0.0000000000000","NORAD_CAT_ID":"51814","EPOCH":"2023-04-07T07:16:06.238272","RA_OF_ASC_NODE":"80.8014","CLASSIFICATION_TYPE":"U","OBJECT_NAME":"STARLINK-3599","MEAN_ELEMENT_THEORY":"SGP4","DECAY_DATE":null,"SITE":"AFWTR","ECCENTRICITY":"0.00011810","RCS_SIZE":"LARGE","LAUNCH_DATE":"2022-02-25","COUNTRY_CODE":"US","OBJECT_ID":"2022-017AY","SEMIMAJOR_AXIS":"6917.871","ARG_OF_PERICENTER":"96.6098","TLE_LINE2":"2 51814  53.2166  80.8014 0001181  96.6098 263.5028 15.08843140 62945","BSTAR":"0.00004100500000","REF_FRAME":"TEME","MEAN_MOTION":"15.08843140","PERIOD":"95.437","ELEMENT_SET_NO":"999","TLE_LINE1":"1 51814U 22017AY  23097.30284998  .00000365  00000-0  41005-4 0  9993","EPHEMERIS_TYPE":"0","REV_AT_EPOCH":"6294","TIME_SYSTEM":"UTC","OBJECT_TYPE":"PAYLOAD"},{"GP_ID":"229685504","CENTER_NAME":"EARTH","PERIAPSIS":"538.917","MEAN_ANOMALY":"269.9051","INCLINATION":"53.2156","EPOCH":"2023-04-07T08:56:47.590656","NORAD_CAT_ID":"51815","APOAPSIS":"540.572","MEAN_MOTION_DDOT":"0.0000000000000","MEAN_MOTION_DOT":"0.00000839","FILE":"3882626","MEAN_ELEMENT_THEORY":"SGP4","OBJECT_NAME":"STARLINK-3604","RA_OF_ASC_NODE":"80.4898","CLASSIFICATION_TYPE":"U","OBJECT_ID":"2022-017AZ","SEMIMAJOR_AXIS":"6917.880","LAUNCH_DATE":"2022-02-25","COUNTRY_CODE":"US","RCS_SIZE":"LARGE","DECAY_DATE":null,"SITE":"AFWTR","ECCENTRICITY":"0.00011960","BSTAR":"0.00007076900000","ARG_OF_PERICENTER":"90.2078","TLE_LINE2":"2 51815  53.2156  80.4898 0001196  90.2078 269.9051 15.08840233 62952","ELEMENT_SET_NO":"999","TLE_LINE1":"1 51815U 22017AZ  23097.37277304  .00000839  00000-0  70769-4 0  9999","EPHEMERIS_TYPE":"0","REV_AT_EPOCH":"6295","REF_FRAME":"TEME","MEAN_MOTION":"15.08840233","PERIOD":"95.438","OBJECT_TYPE":"PAYLOAD","TIME_SYSTEM":"UTC"},{"TIME_SYSTEM":"UTC","OBJECT_TYPE":"PAYLOAD","PERIOD":"95.438","MEAN_MOTION":"15.08834863","REF_FRAME":"TEME","REV_AT_EPOCH":"6300","ELEMENT_SET_NO":"999","TLE_LINE1":"1 51816U 22017BA  23097.36541546 -.00000093  00000-0  12230-4 0  9993","EPHEMERIS_TYPE":"0","TLE_LINE2":"2 51816  53.2165  80.5202 0001213 105.2085 254.9041 15.08834863 63000","ARG_OF_PERICENTER":"105.2085","BSTAR":"0.00001223000000","DECAY_DATE":null,"SITE":"AFWTR","ECCENTRICITY":"0.00012130","RCS_SIZE":"LARGE","COUNTRY_CODE":"US","LAUNCH_DATE":"2022-02-25","SEMIMAJOR_AXIS":"6917.896","OBJECT_ID":"2022-017BA","CLASSIFICATION_TYPE":"U","RA_OF_ASC_NODE":"80.5202","OBJECT_NAME":"STARLINK-3603","MEAN_ELEMENT_THEORY":"SGP4","FILE":"3882626","MEAN_MOTION_DOT":"-0.00000093","MEAN_MOTION_DDOT":"0.0000000000000","APOAPSIS":"540.600","NORAD_CAT_ID":"51816","EPOCH":"2023-04-07T08:46:11.895744","PERIAPSIS":"538.922","MEAN_ANOMALY":"254.9041","INCLINATION":"53.2165","CENTER_NAME":"EARTH","GP_ID":"229683757"},{"CENTER_NAME":"EARTH","GP_ID":"229688173","MEAN_ANOMALY":"36.0923","PERIAPSIS":"332.235","INCLINATION":"53.1822","EPOCH":"2023-04-07T22:00:00.999936","NORAD_CAT_ID":"51817","APOAPSIS":"334.381","MEAN_MOTION_DDOT":"0.0000000000000","MEAN_MOTION_DOT":"0.00179909","FILE":"3882649","MEAN_ELEMENT_THEORY":"SGP4","OBJECT_NAME":"STARLINK-3596","RA_OF_ASC_NODE":"279.4147","CLASSIFICATION_TYPE":"U","OBJECT_ID":"2022-017BB","SEMIMAJOR_AXIS":"6711.443","LAUNCH_DATE":"2022-02-25","COUNTRY_CODE":"US","RCS_SIZE":"LARGE","ECCENTRICITY":"0.00015990","DECAY_DATE":null,"SITE":"AFWTR","BSTAR":"0.00097653000000","ARG_OF_PERICENTER":"334.4722","TLE_LINE2":"2 51817  53.1822 279.4147 0001599 334.4722  36.0923 15.78988187 65363","TLE_LINE1":"1 51817U 22017BB  23097.91667824  .00179909  00000-0  97653-3 0  9996","ELEMENT_SET_NO":"999","EPHEMERIS_TYPE":"0","REV_AT_EPOCH":"6536","REF_FRAME":"TEME","MEAN_MOTION":"15.78988187","PERIOD":"91.198","OBJECT_TYPE":"PAYLOAD","TIME_SYSTEM":"UTC"}];
